STARLINK-1300           
1 45374U 20019Q   26069.00003471  .00016030  00000+0  56718-3 0  9992
2 45374  53.1550 163.7958 0000906  78.2893 201.7903 15.29323290  5693
XCUBE-1                 
1 62400U 24247Z   26068.48297321  .00009773  00000+0  36224-3 0  9994
2 62400  44.9938 117.7807 0005235 331.1499  28.9094 15.27910558 67702
